     3.04           OBSERVATION DATA    M: MIXED            RINEX VERSION / TYPE
MYST                                                        MARKER NAME
123456789                                                   MARKER NUMBER
Automatic                                                   OBSERVER / AGENCY
G   16 C1C L1C D1C S1C C2S L2S D2S S2S C2W L2W D2W S2W C5Q  SYS / # / OBS TYPES
       L5Q D5Q S5Q                                          SYS / # / OBS TYPES
DBHZ                                                        SIGNAL STRENGTH UNIT
    30.000                                                  INTERVAL
  2025     9    14    21    47    0.0000000     GPS         TIME OF FIRST OBS
  2025     9    14    21    47    0.0000000     GPS         TIME OF LAST OBS
                                                            END OF HEADER
> 2025 09 14 21 47  0.0000000  0 13
G03  24561284.633   129070415.59207     -2979.921          43.950    24561288.833   100574371.60406     -2322.017          39.350    24561288.473   100574359.59607     -2322.017          44.050    24561288.415    96383768.67707     -2225.148          46.100
G04  23240339.395   122128826.54307      2264.219          46.250    23240340.496    95165326.54507      1764.328          44.150    23240340.280    95165322.54406      1764.329          40.200    23240344.209    91200120.73508      1690.765          49.400
G06  25059358.141   131687817.72907     -2785.208          44.400    25059361.428   102613896.67207     -2170.292          42.800    25059360.945   102613897.67007     -2170.291          44.050    25059360.306    98338319.02407     -2079.785          43.850
G09  25491822.627   133960424.16416      3539.625          40.500    25491824.160   104384754.04816      2758.140          37.300    25491823.960   104384754.03816      2758.140          40.350    25491824.061   100035389.59106      2643.396          41.650
G11  23522526.178   123611728.83807      -632.297          46.550    23522526.322    96320826.10307      -492.697          46.750    23522526.131    96320835.10307      -492.696          43.250    23522529.633    92307480.24908      -472.127          50.400
G12  24784084.040   130241323.88207     -3872.011          44.750    24784083.500   101486775.79906     -3017.151          41.200    24784083.037   101486778.79707     -3017.152          44.650
G16  25370931.821   133325142.94807      4074.556          44.250                                                                    25370933.957   103889727.14206      3174.981          36.200
G25  21900486.920   115087923.59808     -3152.049          49.550    21900488.749    89678936.21407     -2456.142          46.200    21900488.247    89678938.21808     -2456.141          49.250    21900488.316    85942335.95808     -2353.794          52.650
G26  21973351.229   115470799.96008      2921.690          48.600    21973353.893    89977289.55007      2276.646          47.150    21973353.850    89977292.54908      2276.646          48.650    21973352.114    86228238.51808      2181.801          52.550
G28  20916686.814   109917989.45708     -1338.357          49.750    20916686.214    85650399.72308     -1042.876          52.450    20916685.979    85650405.71908     -1042.876          48.400    20916689.535    82081658.73409      -999.386          56.050
G29  21186821.951   111337575.75608      1107.985          52.050    21186820.746    86756583.43108       863.369          48.750    21186820.307    86756577.42608       863.368          52.300
G31  20588025.418   108190869.86008       784.997          52.250    20588023.051    84304600.25608       611.685          50.600    20588022.693    84304598.25108       611.685          52.100
G32  25108898.569   131948142.50207     -3806.513          47.750    25108903.349   102816755.27206     -2966.121          37.100    25108902.935   102816745.27307     -2966.119          45.100    25108901.443    98532707.96906     -2842.683          38.650
