     3.04           OBSERVATION DATA    M (MIXED)           RINEX VERSION / TYPE
nist                                                        MARKER NAME
49507M002                                                   MARKER NUMBER
nist                nist                                    OBSERVER / AGENCY
3069423             SEPT POLARX5TR      5.4.0               REC # / TYPE / VERS
NDE11330004         NOV750.R4       NONE                    ANT # / TYPE
        0.0000        0.0000        0.0000                  ANTENNA: DELTA H/E/N
 -1288398.3470 -4721697.9035  4078625.2801                  APPROX POSITION XYZ
G   22 C1C C1L C1W C2L C2W C5Q D1C D1L D2L D2W D5Q L1C L1L  SYS / # / OBS TYPES
       L2L L2W L5Q S1C S1L S1W S2L S2W S5Q                  SYS / # / OBS TYPES
                                                            MARKER TYPE
DBHZ                                                        SIGNAL STRENGTH UNIT
    30.000                                                  INTERVAL
  2025     9    14    21    47    0.0000000     GPS         TIME OF FIRST OBS
  2025     9    14    21    47    0.0000000     GPS         TIME OF LAST OBS
                                                            END OF HEADER
> 2025 09 14 21 47 00.0000000  0 10
G01  24563451.283 6  24563451.154 6  24563451.011 3  24563458.340 6  24563458.432 3  24563463.349 6     -2970.672 6     -2970.593 6     -2314.825 6     -2314.809 3     -2218.264 6 129081738.85206 129081740.84806 100583168.16306 100583173.15403  96392222.16806        40.625          40.062          23.062          37.375          23.062          39.312
G03  20277989.863 8                  20277989.810 8  20277993.420 7  20277992.834 8  20277992.742 8      -779.810 8                      -607.653 7      -607.645 8      -582.357 8 106561636.30808                  83035088.17807  83035085.16908  79575307.99008        48.875                          50.938          45.438          50.938          51.625
G04  21168036.410 7  21168036.515 7  21168036.165 6  21168038.075 7  21168037.713 6  21168041.495 8      1799.555 7      1799.566 7      1402.239 7      1402.247 6      1343.851 8 111238887.90507 111238877.90907  86679704.03907  86679712.03206  83068080.58508        46.875          47.375          37.312          45.875          37.312          49.625
G06  25096095.283 6                  25096094.979 5  25096103.365 6  25096102.023 5  25096103.068 6       359.571 6                       280.349 6       280.189 5       268.397 6 131880873.02306                 102764337.35406 102764343.37405  98482499.07206        41.562                          34.250          37.000          34.250          39.438
G09  23769326.893 7                  23769326.527 6  23769332.446 6  23769332.442 6  23769333.143 7      3048.520 7                      2375.499 6      2375.466 6      2276.519 7 124908695.34207                  97331482.59006  97331492.57906  93276023.44207        42.375                          36.438          36.188          36.438          42.375
G16  21432031.615 7                  21432030.891 5                  21432032.963 5                      2864.383 7                                      2231.987 5                 112626235.63607                                  87760768.71305                        47.688                          35.500                          35.500
G26  20835721.394 8                  20835720.912 8  20835724.878 7  20835724.220 8  20835723.245 8      -349.339 8                      -272.216 7      -272.212 8      -260.882 8 109492624.10308                  85319004.87607  85319019.87408  81764074.09908        48.125                          49.062          44.688          49.062          50.938
G28  24112565.796 7  24112566.133 7  24112565.510 4  24112569.329 6  24112568.592 4  24112573.668 7     -3081.611 7     -3081.626 7     -2401.308 6     -2401.251 4     -2301.195 7 126712437.12407 126712432.13307  98736992.29006  98736989.29704  94622976.19107        43.812          43.375          28.188          40.562          28.188          43.938
G29  25903418.198 6                  25903417.702 4  25903423.115 5  25903420.904 4                       625.402 6                       487.379 5       487.326 4                 136123383.26206                 106070155.07405 106070175.04404                        41.125                          27.812          30.312          27.812
G31  21457789.588 8                  21457789.275 7  21457789.953 7  21457789.455 7                     -2515.155 8                     -1959.853 7     -1959.861 7                 112761545.52308                  87866187.86307  87866185.85807                        49.188                          47.812          43.562          47.812
